0 GALAXY 27 (TELSTAR 7)
1 25922U 99052A   23255.69226642 -.00000105  00000-0  00000-0 0  9996
2 25922   7.9831  60.1128 0011243 332.7365  38.2709  0.99020956 41271
0 ABS 6 (LMI 1)
1 25924U 99053A   23255.82932694 -.00000128  00000-0  00000-0 0  9990
2 25924   0.0384 260.0027 0002245 255.6480 293.4821  1.00271945 87721
0 AMC-4 (GE-4)
1 25954U 99060A   23255.74476630  .00000058  00000-0  00000-0 0  9996
2 25954   2.6361  85.2784 0005071  93.2420 154.5110  0.99130730 33412
0 UFO 10 (USA 146)
1 25967U 99063A   23255.16855101 -.00000189  00000-0  00000-0 0  9999
2 25967   9.2776  31.7794 0005016 147.5930 209.5938  1.00275373 87227
0 GALAXY 11
1 26038U 99071A   23255.69966334  .00000088  00000-0  00000-0 0  9994
2 26038   4.1511  82.4914 0005180 111.3642 277.3876  1.00037268 86970
0 USA 148
1 26052U 00001A   23255.61752116  .00000036  00000-0  00000-0 0  9991
2 26052  10.2574  39.5785 0002160 183.2442 171.1747  1.00271294 22846
0 GALAXY 10R
1 26056U 00002A   23255.62321106 -.00000014  00000-0  00000+0 0  9994
2 26056  10.5666  38.3258 0008229 122.5117 244.3208  0.99644913 86275
0 HISPASAT 1C
1 26071U 00007A   23255.70022810  .00000015  00000-0  00000-0 0  9996
2 26071   5.8785  74.3314 0005385 125.5906 125.7064  0.99200107 37285
0 GARUDA 1
1 26089U 00011A   23255.29414883 -.00000138  00000-0  00000-0 0  9996
2 26089   7.1435  76.2500 0004465  77.2474 294.7187  0.99922229 31586
0 ASIASTAR
1 26107U 00016A   23255.52507531 -.00000340  00000-0  00000-0 0  9996
2 26107   6.7401  68.1056 0004458 108.5779 108.6065  1.00275308 85803
0 INSAT 3B
1 26108U 00016B   23255.49253248 -.00000093  00000-0  00000+0 0  9990
2 26108   8.7571  53.7580 0005871 174.8489 207.7278  0.99654911 85704
0 GALAXY 4R
1 26298U 00020A   23255.85343219 -.00000195  00000-0  00000-0 0  9997
2 26298  11.4314  31.0084 0007024 155.9791  32.3489  0.99830867 85551
0 GOES 11
1 26352U 00022A   23255.28927557 -.00000250  00000-0  00000-0 0  9992
2 26352   9.6431  55.6124 0003036 149.7814 216.6801  0.99044472 42483
0 USA 149
1 26356U 00024A   23255.58949083  .00000093  00000-0  00000-0 0  9993
2 26356  12.4104  18.5848 0001185 337.9376  41.1300  1.00272412 22803
0 GORIZONT 33
1 26372U 00029A   23255.04910588 -.00000035  00000-0  00000-0 0  9992
2 26372  13.3617  13.9814 0003971 134.4887 218.6938  1.00298976 85309
0 FENGYUN 2B
1 26382U 00032A   23255.28083438 -.00000245  00000-0  00000-0 0  9991
2 26382  12.2748  23.8848 0000939  92.6297 259.6003  1.00076419 84821
0 TDRS 8
1 26388U 00034A   23255.58681464  .00000086  00000-0  00000-0 0  9997
2 26388  11.0882  39.3584 0002580 215.0222 137.6114  1.00310187 85063
0 COSMOS 2371
1 26394U 00036A   23255.81322777 -.00000135  00000-0  00000-0 0  9997
2 26394  13.4374  14.7180 0006651 124.9526 222.5476  1.00263271 84929
0 INTELSAT 9 (PAS 9)
1 26451U 00043A   23255.35758828 -.00000293  00000-0  00000-0 0  9993
2 26451   8.1790  57.9038 0002794 146.2125 225.7304  1.00271013 34038
0 BRAZILSAT B4
1 26469U 00046A   23255.62196465  .00000056  00000-0  00000-0 0  9994
2 26469   6.8287  68.9250 0004493 153.0972 238.6793  0.99163587 84768
0 RADUGA 1-5
1 26477U 00049A   23255.46416480 -.00000350  00000-0  00000-0 0  9998
2 26477  13.3864  15.2874 0005324  94.5671 153.8998  1.00282441 84306
0 AMC-7 (GE-7)
1 26495U 00054B   23255.69287558 -.00000066  00000-0  00000-0 0  9995
2 26495   4.3222  82.1619 0006216  72.8046 279.3750  0.99135532 83966
0 NSS 11 (AAP-1)
1 26554U 00059A   23255.83272082  .00000017  00000-0  00000-0 0  9993
2 26554   0.0478 305.3859 0002815 223.7730 298.1909  1.00272349 31185
0 NSAT 110
1 26559U 00060A   23256.06126525  .00000061  00000-0  00000+0 0  9994
2 26559   4.2056  81.8936 0006045  49.8924 126.9523  0.99179109 83815
0 USA 153
1 26575U 00065A   23255.82436667 -.00000327  00000-0  00000-0 0  9998
2 26575   9.8697  42.8805 0002380 169.3103 210.4330  1.00276976 22824
0 AMC-6 (GE-6)
1 26580U 00067A   23255.69835800  .00000096  00000-0  00000-0 0  9995
2 26580   0.0459 305.2626 0002753 243.6332 274.9520  1.00271291 83794
0 INTELSAT 12 (PAS 12)
1 26590U 00068A   23255.69479007 -.00000023  00000-0  00000-0 0  9991
2 26590   5.8077  75.2999 0009744 166.1652 203.6167  0.99030004 41514
0 INTELSAT 1R (PAS 1R)
1 26608U 00072A   23255.82889184 -.00000144  00000-0  00000-0 0  9996
2 26608   5.5816  75.5752 0002856 182.0949 189.4305  1.00271514 31212
0 ANIK F1
1 26624U 00076A   23256.06248358 -.00000069  00000-0  00000+0 0  9992
2 26624   2.5827  87.1212 0008719  59.1169 118.8548  1.00272515 83619
0 ASTRA 2D
1 26638U 00081A   23255.15743664 -.00000179  00000-0  00000-0 0  9995
2 26638   8.2567  57.3445 0003382 110.8654 240.2992  0.99003948 42752
0 AMC-8 (GE-8)
1 26639U 00081B   23255.68138859 -.00000295  00000-0  00000+0 0  9996
2 26639   3.5100  84.7062 0002204 181.6262 106.0560  0.99152670 83129
0 CHINASAT 31 (BEIDOU 1B)
1 26643U 00082A   23255.38604466 -.00000068  00000-0  00000-0 0  9990
2 26643  11.1351  34.2279 0083523  64.7845 123.2894  0.99249953 42068
0 SKYNET 4F
1 26695U 01005B   23255.54469513  .00000050  00000-0  00000-0 0  9993
2 26695  11.0839  24.0323 0006706 158.8664 245.8754  0.99146320 82619
0 USA 157
1 26715U 01009A   23255.57921458  .00000010  00000-0  00000+0 0  9999
2 26715  10.4548  25.2021 0002010 180.7499 229.6258  1.00272598 21537
0 BSAT-2A
1 26720U 01011B   23255.92611924 -.00000131  00000-0  00000+0 0  9996
2 26720   8.5670  55.8708 0005709 133.9854  61.3525  0.99176615 81973
0 XM-2
1 26724U 01012A   23255.48591216 -.00000072  00000-0  00000-0 0  9998
2 26724   7.1984  66.0394 0010125  86.2897 110.6420  0.99080252 32249
0 EKRAN 21
1 26736U 01014A   23255.39771574  .00000055  00000-0  00000-0 0  9990
2 26736  13.7904  20.8469 0031811  55.8197 124.9201  0.99582477 81883
0 XM-1
1 26761U 01018A   23255.58712602 -.00000059  00000-0  00000-0 0  9995
2 26761   6.3527  72.1420 0000381 331.8938 181.1945  0.99008720 36137
0 INTELSAT 10 (PAS 10)
1 26766U 01019A   23255.68974277  .00000028  00000-0  00000-0 0  9995
2 26766   6.6513  69.3066 0002732 115.4220 232.8173  1.00271682 35505
0 INTELSAT 901
1 26824U 01024A   23255.43382007 -.00000211  00000-0  00000-0 0  9998
2 26824   0.0287 242.7358 0001282 336.9310 260.2003  1.00272031 12877
0 ASTRA 2C
1 26853U 01025A   23255.85482455 -.00000264  00000-0  00000-0 0  9993
2 26853   5.6747  74.8685 0002409  99.1464  52.8388  1.00270724 34937
0 ARTEMIS
1 26863U 01029A   23255.68225882 -.00000325  00000-0  00000-0 0  9996
2 26863  14.2496  13.9359 0016986 144.3940 219.8716  0.99295455 33848
0 GOES 12
1 26871U 01031A   23256.07271569 -.00000005  00000-0  00000+0 0  9999
2 26871  10.3339  45.1029 0002044 331.1888  32.1932  0.99137524 80747
0 USA 159
1 26880U 01033A   23255.17966259 -.00000300  00000-0  00000-0 0  9997
2 26880  11.8345  23.0154 0001219 241.7402 101.4279  1.00264097 22845
0 COSMOS 2379
1 26892U 01037A   23255.54172135 -.00000374  00000-0  00000-0 0  9998
2 26892  12.3911  21.1575 0005213 173.9638 114.6240  1.00221118 80748
0 INTELSAT 902
1 26900U 01039A   23256.05535464 -.00000288  00000-0  00000+0 0  9998
2 26900   3.5457  83.8777 0002953 121.7936 115.9574  1.00273190 80666
0 DIRECTV 4S
1 26985U 01052A   23255.69609542  .00000045  00000-0  00000-0 0  9995
2 26985   3.6615  83.5559 0006073  49.9923 318.3438  0.99264346 41064
0 USA 164
1 27168U 02001A   23255.78844380  .00000097  00000-0  00000-0 0  9992
2 27168   9.9968  27.1071 0098523 354.8724 272.2927  1.00274268 22842
0 INSAT 3C
1 27298U 02002A   23255.54073351 -.00000167  00000-0  00000-0 0  9992
2 27298   5.9406  74.2436 0013033 110.8197 176.2282  0.99305427 79077
0 ECHOSTAR 7
1 27378U 02006A   23255.81897125 -.00000283  00000-0  00000-0 0  9997
2 27378   1.3955  89.7064 0003551  49.6558 254.1602  0.99838027 40467
0 INTELSAT 904
1 27380U 02007A   23255.36167834 -.00000221  00000-0  00000-0 0  9990
2 27380   4.3686  80.9941 0002231  94.4652 276.3529  1.00272741 41652
0 JCSAT 2A
1 27399U 02015A   23255.82532390 -.00000285  00000-0  00000-0 0  9993
2 27399   5.7801  74.9462 0009661  62.7653 290.2140  0.99030367 78668
0 ASTRA 3A
1 27400U 02015B   23255.00723120  .00000026  00000-0  00000-0 0  9991
2 27400   8.3580  56.1271 0001351  91.3528 285.3571  0.99083996 78570
0 INTELSAT 903
1 27403U 02016A   23255.82836969 -.00000279  00000-0  00000-0 0  9992
2 27403   5.1579  77.7012 0003127  36.0176 331.1592  0.99024577 35415
0 NSS 7
1 27414U 02019A   23255.29197326 -.00000164  00000-0  00000-0 0  9998
2 27414   6.9556  67.3973 0002248 115.9803 252.7894  1.00272142 78459
0 DIRECTV 5 (TEMPO 1)
1 27426U 02023A   23256.06230953 -.00000063  00000-0  00000+0 0  9993
2 27426   2.2778  87.7928 0003270  95.7511  80.5745  1.00272529 78192
0 INTELSAT 905
1 27438U 02027A   23255.43434219 -.00000192  00000-0  00000-0 0  9995
2 27438   4.1926  81.6801 0002424  98.3242 303.0580  1.00271964 41253
0 EXPRESS 4A
1 27441U 02029A   23255.74077431 -.00000308  00000-0  00000-0 0  9993
2 27441   9.8635  43.6650 0007240 101.6485 260.5113  0.99209107 77765
0 GALAXY 3C
1 27445U 02030A   23255.85047344 -.00000160  00000-0  00000-0 0  9997
2 27445   1.1210  89.7069 0002894 142.2217 330.9942  1.00272042 36388
0 EUTE 8 WEST C (HB 6)
1 27499U 02038A   23255.61534028  .00000082  00000-0  00000-0 0  9990
2 27499   6.0717  73.1907 0002096  86.7724 287.0601  0.99321206 40923
0 INTELSAT 906
1 27513U 02041A   23255.74493991  .00000007  00000-0  00000-0 0  9995
2 27513   3.2175  85.1998 0002681  94.9262 143.6828  1.00271371 76914
0 DRTS
1 27516U 02042B   23255.16299392 -.00000219  00000-0  00000-0 0  9990
2 27516   9.2567  49.6527 0017595 194.3756 154.6947  0.99276495 35563
0 EUTE 25C (EUTE W5)
1 27554U 02051A   23255.58634281  .00000105  00000-0  00000-0 0  9991
2 27554   6.5516  70.2871 0010047 313.8377 196.9695  1.00256370 38681
0 TDRS 10
1 27566U 02055A   23255.69191833  .00000085  00000-0  00000-0 0  9998
2 27566   9.0362  47.2487 0004219  11.1436  11.0940  1.00267622 76129
0 NSS 6
1 27603U 02057A   23255.69910597  .00000058  00000-0  00000-0 0  9998
2 27603   2.7554  86.6247 0002779 158.9331  71.1007  0.99121987 75926
